{
  "links" : {
    "next" : "https://api.nasa.gov/neo/rest/v1/feed?start_date=2015-08-16&end_date=2015-08-16&detailed=true&api_key=t0TVs3DtDT2H8Oy2Zy8m2eVrNsAVKAexjcZXUckd",
    "prev" : "https://api.nasa.gov/neo/rest/v1/feed?start_date=2015-08-14&end_date=2015-08-14&detailed=true&api_key=t0TVs3DtDT2H8Oy2Zy8m2eVrNsAVKAexjcZXUckd",
    "self" : "https://api.nasa.gov/neo/rest/v1/feed?start_date=2015-08-15&end_date=2015-08-15&detailed=true&api_key=t0TVs3DtDT2H8Oy2Zy8m2eVrNsAVKAexjcZXUckd"
  },
  "element_count" : 6,
  "near_earth_objects" : {
    "2015-08-15" : [ {
      "links" : {
        "self" : "https://api.nasa.gov/neo/rest/v1/neo/3725154?api_key=t0TVs3DtDT2H8Oy2Zy8m2eVrNsAVKAexjcZXUckd"
      },
      "neo_reference_id" : "3725154",
      "name" : "(2015 OT78)",
      "nasa_jpl_url" : "http://ssd.jpl.nasa.gov/sbdb.cgi?sstr=3725154",
      "absolute_magnitude_h" : 22.4,
      "estimated_diameter" : {
        "kilometers" : {
          "estimated_diameter_min" : 0.0880146521,
          "estimated_diameter_max" : 0.1968067451
        },
        "meters" : {
          "estimated_diameter_min" : 88.0146520901,
          "estimated_diameter_max" : 196.8067450894
        },
        "miles" : {
          "estimated_diameter_min" : 0.0546897524,
          "estimated_diameter_max" : 0.122290004
        },
        "feet" : {
          "estimated_diameter_min" : 288.7619911632,
          "estimated_diameter_max" : 645.6914415591
        }
      },
      "is_potentially_hazardous_asteroid" : false,
      "close_approach_data" : [ {
        "close_approach_date" : "2015-08-15",
        "epoch_date_close_approach" : 1439622000000,
        "relative_velocity" : {
          "kilometers_per_second" : "6.7857434184",
          "kilometers_per_hour" : "24428.67630638",
          "miles_per_hour" : "15179.0294527059"
        },
        "miss_distance" : {
          "astronomical" : "0.1827644848",
          "lunar" : "71.0953826904",
          "kilometers" : "27341178",
          "miles" : "16989020"
        },
        "orbiting_body" : "Earth"
      } ],
      "orbital_data" : {
        "orbit_id" : "24",
        "orbit_determination_date" : "2017-04-06 08:32:39",
        "orbit_uncertainty" : "5",
        "minimum_orbit_intersection" : ".176799",
        "jupiter_tisserand_invariant" : "3.406",
        "epoch_osculation" : "2458000.5",
        "eccentricity" : ".4840430016055265",
        "semi_major_axis" : "2.302213511457592",
        "inclination" : "10.23793726254991",
        "ascending_node_longitude" : "316.2736130450344",
        "orbital_period" : "1275.900549574725",
        "perihelion_distance" : "1.18784317303486",
        "perihelion_argument" : "9.359399737415286",
        "aphelion_distance" : "3.416583849880325",
        "perihelion_time" : "2458531.943150970473",
        "mean_anomaly" : "210.0513739780582",
        "mean_motion" : ".2821536522732849",
        "equinox" : "J2000"
      }
    }, {
      "links" : {
        "self" : "https://api.nasa.gov/neo/rest/v1/neo/3745831?api_key=t0TVs3DtDT2H8Oy2Zy8m2eVrNsAVKAexjcZXUckd"
      },
      "neo_reference_id" : "3745831",
      "name" : "(2016 EJ55)",
      "nasa_jpl_url" : "http://ssd.jpl.nasa.gov/sbdb.cgi?sstr=3745831",
      "absolute_magnitude_h" : 24.6,
      "estimated_diameter" : {
        "kilometers" : {
          "estimated_diameter_min" : 0.0319561887,
          "estimated_diameter_max" : 0.0714562102
        },
        "meters" : {
          "estimated_diameter_min" : 31.9561886721,
          "estimated_diameter_max" : 71.4562101727
        },
        "miles" : {
          "estimated_diameter_min" : 0.0198566489,
          "estimated_diameter_max" : 0.0444008168
        },
        "feet" : {
          "estimated_diameter_min" : 104.8431420431,
          "estimated_diameter_max" : 234.436392583
        }
      },
      "is_potentially_hazardous_asteroid" : false,
      "close_approach_data" : [ {
        "close_approach_date" : "2015-08-15",
        "epoch_date_close_approach" : 1439622000000,
        "relative_velocity" : {
          "kilometers_per_second" : "6.4472004139",
          "kilometers_per_hour" : "23209.9214899497",
          "miles_per_hour" : "14421.7426057968"
        },
        "miss_distance" : {
          "astronomical" : "0.3332679787",
          "lunar" : "129.6412506104",
          "kilometers" : "49856180",
          "miles" : "30979194"
        },
        "orbiting_body" : "Earth"
      } ],
      "orbital_data" : {
        "orbit_id" : "11",
        "orbit_determination_date" : "2017-04-06 08:27:44",
        "orbit_uncertainty" : "7",
        "minimum_orbit_intersection" : ".0212488",
        "jupiter_tisserand_invariant" : "5.382",
        "epoch_osculation" : "2458000.5",
        "eccentricity" : ".2506166538059225",
        "semi_major_axis" : "1.163043619537709",
        "inclination" : "7.196803812844379",
        "ascending_node_longitude" : "344.2365258987737",
        "orbital_period" : "458.1339027043346",
        "perihelion_distance" : ".8715655193788402",
        "perihelion_argument" : "102.8578243108282",
        "aphelion_distance" : "1.454521719696578",
        "perihelion_time" : "2457845.093981374346",
        "mean_anomaly" : "122.1174996545522",
        "mean_motion" : ".7857964622896132",
        "equinox" : "J2000"
      }
    }, {
      "links" : {
        "self" : "https://api.nasa.gov/neo/rest/v1/neo/3703540?api_key=t0TVs3DtDT2H8Oy2Zy8m2eVrNsAVKAexjcZXUckd"
      },
      "neo_reference_id" : "3703540",
      "name" : "(2015 AC44)",
      "nasa_jpl_url" : "http://ssd.jpl.nasa.gov/sbdb.cgi?sstr=3703540",
      "absolute_magnitude_h" : 24.4,
      "estimated_diameter" : {
        "kilometers" : {
          "estimated_diameter_min" : 0.0350392641,
          "estimated_diameter_max" : 0.0783501764
        },
        "meters" : {
          "estimated_diameter_min" : 35.0392641108,
          "estimated_diameter_max" : 78.3501764334
        },
        "miles" : {
          "estimated_diameter_min" : 0.0217723826,
          "estimated_diameter_max" : 0.0486845275
        },
        "feet" : {
          "estimated_diameter_min" : 114.9582192654,
          "estimated_diameter_max" : 257.0543928497
        }
      },
      "is_potentially_hazardous_asteroid" : false,
      "close_approach_data" : [ {
        "close_approach_date" : "2015-08-15",
        "epoch_date_close_approach" : 1439622000000,
        "relative_velocity" : {
          "kilometers_per_second" : "13.013637528",
          "kilometers_per_hour" : "46849.0951008198",
          "miles_per_hour" : "29110.2057863955"
        },
        "miss_distance" : {
          "astronomical" : "0.263591108",
          "lunar" : "102.5369415283",
          "kilometers" : "39432668",
          "miles" : "24502324"
        },
        "orbiting_body" : "Earth"
      } ],
      "orbital_data" : {
        "orbit_id" : "6",
        "orbit_determination_date" : "2017-08-17 06:19:02",
        "orbit_uncertainty" : "6",
        "minimum_orbit_intersection" : ".14999",
        "jupiter_tisserand_invariant" : "6.084",
        "epoch_osculation" : "2458000.5",
        "eccentricity" : ".1863309941239156",
        "semi_major_axis" : ".984982891589975",
        "inclination" : "20.4064442034547",
        "ascending_node_longitude" : "295.7782973384399",
        "orbital_period" : "357.0602113075257",
        "perihelion_distance" : ".8014500502049661",
        "perihelion_argument" : "26.55668552959023",
        "aphelion_distance" : "1.168515732974984",
        "perihelion_time" : "2457968.389550317704",
        "mean_anomaly" : "32.37482508424976",
        "mean_motion" : "1.008233313596351",
        "equinox" : "J2000"
      }
    } ]
  }
}